NORAD_CAT_ID,OBJECT_NAME,OBJECT_TYPE,EPOCH,MEAN_MOTION,ECCENTRICITY,INCLINATION,RA_OF_ASC_NODE,ARG_OF_PERICENTER,MEAN_ANOMALY,BSTAR,MEAN_MOTION_DOT,MEAN_MOTION_DDOT,TLE_LINE0,TLE_LINE1,TLE_LINE2,SEMIMAJOR_AXIS,PERIOD,APOGEE,PERIGEE,DECAYED
54208.0,STARLINK-5255,PAYLOAD,2024-01-15 21:50:00,15.0884506,0.0001444,53.2146,247.7026,85.3226,274.7931,8.7217e-06,-1.49e-06,0.0,0 STARLINK-5255,1 54208U 22141BD  24015.90972591 -.00000149  00000-0  87217-5 0  9998,2 54208  53.2146 247.7026 0001444  85.3226 274.7931 15.08845060 68250,6917.865,95.437,540.729,538.731,0.0
54208.0,STARLINK-5255,PAYLOAD,2024-01-16 21:40:47,15.08841318,0.0001584,53.2165,243.2337,96.0395,264.0778,4.2626e-05,3.9e-06,0.0,0 STARLINK-5255,1 54208U 22141BD  24016.90332564  .00000390  00000-0  42626-4 0  9990,2 54208  53.2165 243.2337 0001584  96.0395 264.0778 15.08841318 68172,6917.876,95.437,540.837,538.646,0.0
54208.0,STARLINK-5255,PAYLOAD,2024-01-17 00:51:33,15.08841846,0.0001611,53.2168,242.6359,101.6746,258.4427,4.186e-05,3.78e-06,0.0,0 STARLINK-5255,1 54208U 22141BD  24017.03580435  .00000378  00000-0  41860-4 0  9992,2 54208  53.2168 242.6359 0001611 101.6746 258.4427 15.08841846 68428,6917.875,95.437,540.854,538.625,0.0
54208.0,STARLINK-5255,PAYLOAD,2024-01-17 19:56:11,15.08833144,0.0001467,53.2169,239.0662,106.1432,253.9722,3.2763e-05,2.33e-06,0.0,0 STARLINK-5255,1 54208U 22141BD  24017.83069198  .00000233  00000-0  32763-4 0  9990,2 54208  53.2169 239.0662 0001467 106.1432 253.9722 15.08833144 68540,6917.901,95.438,540.781,538.751,0.0
54208.0,STARLINK-5255,PAYLOAD,2024-01-17 21:31:34,15.08834356,0.000147,53.2171,238.7686,105.8602,254.2552,4.237e-05,3.86e-06,0.0,0 STARLINK-5255,1 54208U 22141BD  24017.89693108  .00000386  00000-0  42370-4 0  9994,2 54208  53.2171 238.7686 0001470 105.8602 254.2552 15.08834356 68321,6917.898,95.438,540.78,538.746,0.0
54208.0,STARLINK-5255,PAYLOAD,2024-01-18 00:42:21,15.08833209,0.0001451,53.2167,238.1748,107.3908,252.7243,3.0894e-05,2.04e-06,0.0,0 STARLINK-5255,1 54208U 22141BD  24018.02941255  .00000204  00000-0  30894-4 0  9996,2 54208  53.2167 238.1748 0001451 107.3908 252.7243 15.08833209 68342,6917.901,95.438,540.77,538.762,0.0
54208.0,STARLINK-5255,PAYLOAD,2024-01-18 19:46:58,15.0884324,0.0001277,53.2163,234.6067,104.4787,255.6347,2.9611e-05,1.83e-06,0.0,0 STARLINK-5255,1 54208U 22141BD  24018.82428905  .00000183  00000-0  29611-4 0  9997,2 54208  53.2163 234.6067 0001277 104.4787 255.6347 15.08843240 68693,6917.87,95.437,540.619,538.852,0.0
54208.0,STARLINK-5255,PAYLOAD,2024-01-18 21:22:21,15.0884416,0.0001289,53.2164,234.3093,104.979,255.1345,4.0542e-05,3.57e-06,0.0,0 STARLINK-5255,1 54208U 22141BD  24018.89052807  .00000357  00000-0  40542-4 0  9997,2 54208  53.2164 234.3093 0001289 104.9790 255.1345 15.08844160 68473,6917.868,95.437,540.624,538.841,0.0
54208.0,STARLINK-5255,PAYLOAD,2024-01-19 00:33:07,15.08842856,0.0001356,53.216,233.7149,107.5436,252.5705,3.2336e-05,2.27e-06,0.0,0 STARLINK-5255,1 54208U 22141BD  24019.02300898  .00000227  00000-0  32336-4 0  9997,2 54208  53.2160 233.7149 0001356 107.5436 252.5705 15.08842856 68498,6917.872,95.437,540.675,538.799,0.0
54208.0,STARLINK-5255,PAYLOAD,2024-01-19 22:48:31,15.088444,0.0001233,53.2159,229.5528,96.9668,263.1465,0.00014093,1.956e-05,0.0,0 STARLINK-5255,1 54208U 22141BD  24019.95036702  .00001956  00000-0  14093-3 0  9998,2 54208  53.2159 229.5528 0001233  96.9668 263.1465 15.08844400 68636,6917.867,95.437,540.585,538.879,0.0
54208.0,STARLINK-5255,PAYLOAD,2024-01-20 13:07:00,15.08837764,0.000105,53.2152,226.8815,76.4655,283.6454,9.172e-05,1.172e-05,0.0,0 STARLINK-5255,1 54208U 22141BD  24020.54653356  .00001172  00000-0  91720-4 0  9998,2 54208  53.2152 226.8815 0001050  76.4655 283.6454 15.08837764 68724,6917.887,95.438,540.479,539.026,0.0
54208.0,STARLINK-5255,PAYLOAD,2024-01-20 19:28:33,15.08837257,0.0001287,53.2159,225.6877,81.7909,278.3229,6.8433e-06,-1.79e-06,0.0,0 STARLINK-5255,1 54208U 22141BD  24020.81149725 -.00000179  00000-0  68433-5 0  9991,2 54208  53.2159 225.6877 0001287  81.7909 278.3229 15.08837257 68996,6917.889,95.438,540.644,538.863,0.0
54208.0,STARLINK-5255,PAYLOAD,2024-01-20 22:39:19,15.08839966,0.0001221,53.2155,225.0927,100.6479,259.465,2.8645e-05,1.68e-06,0.0,0 STARLINK-5255,1 54208U 22141BD  24020.94397375  .00000168  00000-0  28645-4 0  9998,2 54208  53.2155 225.0927 0001221 100.6479 259.4650 15.08839966 68787,6917.88,95.438,540.59,538.901,0.0
54208.0,STARLINK-5255,PAYLOAD,2024-01-21 19:19:19,15.08844623,0.0001198,53.2153,221.227,100.6972,259.4155,7.9147e-05,9.72e-06,0.0,0 STARLINK-5255,1 54208U 22141BD  24021.80508864  .00000972  00000-0  79147-4 0  9997,2 54208  53.2153 221.2270 0001198 100.6972 259.4155 15.08844623 69142,6917.866,95.437,540.56,538.902,0.0
54208.0,STARLINK-5255,PAYLOAD,2024-01-21 22:30:05,15.08848828,0.0001357,53.216,220.6318,82.9099,277.2048,7.2656e-05,8.69e-06,0.0,0 STARLINK-5255,1 54208U 22141BD  24021.93756649  .00000869  00000-0  72656-4 0  9990,2 54208  53.2160 220.6318 0001357  82.9099 277.2048 15.08848828 68931,6917.853,95.437,540.657,538.78,0.0
54208.0,STARLINK-5255,PAYLOAD,2024-01-22 19:10:07,15.08838868,0.000135,53.2167,216.7663,101.6771,258.4373,5.4636e-05,5.82e-06,0.0,0 STARLINK-5255,1 54208U 22141BD  24022.79869402  .00000582  00000-0  54636-4 0  9997,2 54208  53.2167 216.7663 0001350 101.6771 258.4373 15.08838868 69291,6917.884,95.438,540.683,538.815,0.0
54208.0,STARLINK-5255,PAYLOAD,2024-01-23 03:07:02,15.08843269,0.0001236,53.2156,215.2786,98.5654,261.5478,7.4532e-05,8.99e-06,0.0,0 STARLINK-5255,1 54208U 22141BD  24023.12989033  .00000899  00000-0  74532-4 0  9996,2 54208  53.2156 215.2786 0001236  98.5654 261.5478 15.08843269 69119,6917.87,95.437,540.59,538.88,0.0
54208.0,STARLINK-5255,PAYLOAD,2024-01-23 15:50:07,15.08852005,0.0001359,53.2159,212.8999,86.5001,273.6147,9.1603e-05,1.171e-05,0.0,0 STARLINK-5255,1 54208U 22141BD  24023.65980614  .00001171  00000-0  91603-4 0  9992,2 54208  53.2159 212.8999 0001359  86.5001 273.6147 15.08852005 69429,6917.844,95.437,540.649,538.769,0.0
54208.0,STARLINK-5255,PAYLOAD,2024-01-23 20:36:16,15.08852085,0.0001371,53.2163,212.0084,84.503,275.6118,0.00011548,1.551e-05,0.0,0 STARLINK-5255,1 54208U 22141BD  24023.85852388  .00001551  00000-0  11548-3 0  9991,2 54208  53.2163 212.0084 0001371  84.5030 275.6118 15.08852085 69221,6917.843,95.437,540.657,538.76,0.0
54208.0,STARLINK-5255,PAYLOAD,2024-01-24 02:57:49,15.08834798,0.000162,53.215,210.819,71.5235,288.5933,-2.5849e-05,-6.99e-06,0.0,0 STARLINK-5255,1 54208U 22141BD  24024.12349536 -.00000699  00000-0 -25849-4 0  9992,2 54208  53.2150 210.8190 0001620  71.5235 288.5933 15.08834798 69499,6917.896,95.438,540.882,538.641,0.0
54208.0,STARLINK-5255,PAYLOAD,2024-01-24 14:05:31,15.08840568,0.0001396,53.2146,208.7375,84.5527,275.5624,8.5294e-05,1.07e-05,0.0,0 STARLINK-5255,1 54208U 22141BD  24024.58717267  .00001070  00000-0  85294-4 0  9994,2 54208  53.2146 208.7375 0001396  84.5527 275.5624 15.08840568 69331,6917.879,95.438,540.709,538.778,0.0
54208.0,STARLINK-5255,PAYLOAD,2024-01-24 18:51:41,15.08844183,0.000139,53.2147,207.8454,86.2517,273.8634,0.00015804,2.228e-05,0.0,0 STARLINK-5255,1 54208U 22141BD  24024.78589141  .00002228  00000-0  15804-3 0  9999,2 54208  53.2147 207.8454 0001390  86.2517 273.8634 15.08844183 69599,6917.868,95.437,540.694,538.771,0.0
54208.0,STARLINK-5255,PAYLOAD,2024-01-24 20:27:04,15.08843994,0.0001372,53.2147,207.5482,84.4803,275.6346,0.00015012,2.102e-05,0.0,0 STARLINK-5255,1 54208U 22141BD  24024.85213137  .00002102  00000-0  15012-3 0  9998,2 54208  53.2147 207.5482 0001372  84.4803 275.6346 15.08843994 69370,6917.868,95.437,540.682,538.784,0.0
54208.0,STARLINK-5255,PAYLOAD,2024-01-24 22:02:27,15.08843481,0.0001374,53.2146,207.2508,83.6748,276.4401,0.00015852,2.236e-05,0.0,0 STARLINK-5255,1 54208U 22141BD  24024.91837091  .00002236  00000-0  15852-3 0  9996,2 54208  53.2146 207.2508 0001374  83.6748 276.4401 15.08843481 69389,6917.87,95.437,540.685,538.784,0.0
54208.0,STARLINK-5255,PAYLOAD,2024-01-25 18:42:28,15.08844166,0.0001361,53.2147,203.3844,84.0294,276.0853,0.00026949,4.004e-05,0.0,0 STARLINK-5255,1 54208U 22141BD  24025.77949345  .00004004  00000-0  26949-3 0  9991,2 54208  53.2147 203.3844 0001361  84.0294 276.0853 15.08844166 69510,6917.868,95.437,540.674,538.791,0.0
54208.0,STARLINK-5255,PAYLOAD,2024-01-26 16:57:52,15.08845969,0.0001326,53.2148,199.2214,85.0952,275.0192,0.00027432,4.081e-05,0.0,0 STARLINK-5255,1 54208U 22141BD  24026.70685260  .00004081  00000-0  27432-3 0  9991,2 54208  53.2148 199.2214 0001326  85.0952 275.0192 15.08845969 69885,6917.862,95.437,540.644,538.81,0.0
54208.0,STARLINK-5255,PAYLOAD,2024-01-27 12:02:29,15.08842106,0.000131,53.215,195.6517,87.0764,273.0378,0.0001035,1.36e-05,0.0,0 STARLINK-5255,1 54208U 22141BD  24027.50173328  .00001360  00000-0  10350-3 0  9995,2 54208  53.2150 195.6517 0001310  87.0764 273.0378 15.08842106 70000,6917.874,95.437,540.645,538.833,0.0
54208.0,STARLINK-5255,PAYLOAD,2024-01-27 18:24:02,15.0883912,0.0001321,53.2155,194.4627,78.6452,281.4688,4.076e-05,3.61e-06,0.0,0 STARLINK-5255,1 54208U 22141BD  24027.76669553  .00000361  00000-0  40760-4 0  9992,2 54208  53.2155 194.4627 0001321  78.6452 281.4688 15.08839120 69812,6917.883,95.438,540.662,538.834,0.0
54208.0,STARLINK-5255,PAYLOAD,2024-01-28 10:17:53,15.08838134,0.0001317,53.2155,191.491,76.9587,283.1553,6.1528e-05,6.91e-06,0.0,0 STARLINK-5255,1 54208U 22141BD  24028.42909688  .00000691  00000-0  61528-4 0  9993,2 54208  53.2155 191.4910 0001317  76.9587 283.1553 15.08838134 70141,6917.886,95.438,540.662,538.84,0.0
54208.0,STARLINK-5255,PAYLOAD,2024-01-28 18:14:49,15.08842665,0.0001347,53.2167,190.0049,76.9531,283.1611,0.00011486,1.541e-05,0.0,0 STARLINK-5255,1 54208U 22141BD  24028.76029668  .00001541  00000-0  11486-3 0  9993,2 54208  53.2167 190.0049 0001347  76.9531 283.1611 15.08842665 69961,6917.872,95.437,540.669,538.805,0.0
